CMOB_L_00003023-15
1 10806U 22290UU  26075.70052083  .00000000  00000+0  00000-0 0  9994
2 10806  55.0000 316.8000 0000000   0.0000 175.2000 15.90815360    19
CMOB_L_00003023-16
1 10807U 24837HY  26075.70052083  .00000000  00000+0  00000-0 0  9994
2 10807  55.0000 316.8000 0000000   0.0000 185.2000 15.90815360    11
CMOB_L_00003023-17
1 10808U 24555XC  26075.70052083  .00000000  00000+0  00000-0 0  9992
2 10808  55.0000 316.8000 0000000   0.0000 195.2000 15.90815360    13
CMOB_L_00003023-18
1 10809U 22166KG  26075.70052083  .00000000  00000+0  00000-0 0  9999
2 10809  55.0000 316.8000 0000000   0.0000 205.2000 15.90815360    16
CMOB_L_00003023-19
1 10810U 25859RL  26075.70052083  .00000000  00000+0  00000-0 0  9993
2 10810  55.0000 316.8000 0000000   0.0000 215.2000 15.90815360    19
CMOB_L_00003023-20
1 10811U 24750IX  26075.70052083  .00000000  00000+0  00000-0 0  9993
2 10811  55.0000 316.8000 0000000   0.0000 225.2000 15.90815360    11
CMOB_L_00003023-21
1 10812U 25812PL  26075.70052083  .00000000  00000+0  00000-0 0  9994
2 10812  55.0000 316.8000 0000000   0.0000 235.2000 15.90815360    13
CMOB_L_00003023-22
1 10813U 25388ZD  26075.70052083  .00000000  00000+0  00000-0 0  9993
2 10813  55.0000 316.8000 0000000   0.0000 245.2000 15.90815360    15
CMOB_L_00003023-23
1 10814U 22484BS  26075.70052083  .00000000  00000+0  00000-0 0  9998
2 10814  55.0000 316.8000 0000000   0.0000 255.2000 15.90815360    17
CMOB_L_00003023-24
1 10815U 25756XC  26075.70052083  .00000000  00000+0  00000-0 0  9994
2 10815  55.0000 316.8000 0000000   0.0000 265.2000 15.90815360    19
CMOB_L_00003023-25
1 10816U 25384GI  26075.70052083  .00000000  00000+0  00000-0 0  9992
2 10816  55.0000 316.8000 0000000   0.0000 275.2000 15.90815360    11
CMOB_L_00003023-26
1 10817U 25741VR  26075.70052083  .00000000  00000+0  00000-0 0  9990
2 10817  55.0000 316.8000 0000000   0.0000 285.2000 15.90815360    13
CMOB_L_00003023-27
1 10818U 26128F   26075.70052083  .00000000  00000+0  00000-0 0  9991
2 10818  55.0000 316.8000 0000000   0.0000 295.2000 15.90815360    15
CMOB_L_00003023-28
1 10819U 25707VN  26075.70052083  .00000000  00000+0  00000-0 0  9994
2 10819  55.0000 316.8000 0000000   0.0000 305.2000 15.90815360    18
CMOB_L_00003023-29
1 10820U 25603SU  26075.70052083  .00000000  00000+0  00000-0 0  9991
2 10820  55.0000 316.8000 0000000   0.0000 315.2000 15.90815360    11
CMOB_L_00003023-30
1 10821U 26368QI  26075.70052083  .00000000  00000+0  00000-0 0  9991
2 10821  55.0000 316.8000 0000000   0.0000 325.2000 15.90815360    13
CMOB_L_00003023-31
1 10822U 22266HE  26075.70052083  .00000000  00000+0  00000-0 0  9995
2 10822  55.0000 316.8000 0000000   0.0000 335.2000 15.90815360    15
CMOB_L_00003023-32
1 10823U 23386HP  26075.70052083  .00000000  00000+0  00000-0 0  9990
2 10823  55.0000 316.8000 0000000   0.0000 345.2000 15.90815360    17
CMOB_L_00003023-33
1 10824U 24132WQ  26075.70052083  .00000000  00000+0  00000-0 0  9991
2 10824  55.0000 316.8000 0000000   0.0000 355.2000 15.90815360    19
CMOB_L_00003023-34
1 10825U 22053C   26075.70052083  .00000000  00000+0  00000-0 0  9992
2 10825  55.0000 316.8000 0000000   0.0000   5.2000 15.90815360    12
CMOB_L_00003023-35
1 10826U 22453AA  26075.70052083  .00000000  00000+0  00000-0 0  9997
2 10826  55.0000 316.8000 0000000   0.0000  15.2000 15.90815360    14
CMOB_L_00003023-36
1 10827U 25249TG  26075.70052083  .00000000  00000+0  00000-0 0  9994
2 10827  55.0000 316.8000 0000000   0.0000  25.2000 15.90815360    16
CMOB_L_00003024-01
1 10828U 22866EV  26075.70052083  .00000000  00000+0  00000-0 0  9997
2 10828  55.0000 331.2000 0000000   0.0000  36.8000 15.90815360    16
CMOB_L_00003024-02
1 10829U 22606XY  26075.70052083  .00000000  00000+0  00000-0 0  9990
2 10829  55.0000 331.2000 0000000   0.0000  46.8000 15.90815360    18
CMOB_L_00003024-03
1 10830U 23161SE  26075.70052083  .00000000  00000+0  00000-0 0  9999
2 10830  55.0000 331.2000 0000000   0.0000  56.8000 15.90815360    11
CMOB_L_00003024-04
1 10831U 25533SH  26075.70052083  .00000000  00000+0  00000-0 0  9995
2 10831  55.0000 331.2000 0000000   0.0000  66.8000 15.90815360    13
CMOB_L_00003024-05
1 10832U 24130UR  26075.70052083  .00000000  00000+0  00000-0 0  9998
2 10832  55.0000 331.2000 0000000   0.0000  76.8000 15.90815360    15
CMOB_L_00003024-06
1 10833U 26962RR  26075.70052083  .00000000  00000+0  00000-0 0  9994
2 10833  55.0000 331.2000 0000000   0.0000  86.8000 15.90815360    17
CMOB_L_00003024-07
1 10834U 22281PI  26075.70052083  .00000000  00000+0  00000-0 0  9995
2 10834  55.0000 331.2000 0000000   0.0000  96.8000 15.90815360    19
CMOB_L_00003024-08
1 10835U 25545EE  26075.70052083  .00000000  00000+0  00000-0 0  9992
2 10835  55.0000 331.2000 0000000   0.0000 106.8000 15.90815360    12
CMOB_L_00003024-09
1 10836U 26332UD  26075.70052083  .00000000  00000+0  00000-0 0  9998
2 10836  55.0000 331.2000 0000000   0.0000 116.8000 15.90815360    14
CMOB_L_00003024-10
1 10837U 24514ZF  26075.70052083  .00000000  00000+0  00000-0 0  9999
2 10837  55.0000 331.2000 0000000   0.0000 126.8000 15.90815360    16
CMOB_L_00003024-11
1 10838U 22142AI  26075.70052083  .00000000  00000+0  00000-0 0  9995
2 10838  55.0000 331.2000 0000000   0.0000 136.8000 15.90815360    18
CMOB_L_00003024-12
1 10839U 23337MG  26075.70052083  .00000000  00000+0  00000-0 0  9993
2 10839  55.0000 331.2000 0000000   0.0000 146.8000 15.90815360    10
CMOB_L_00003024-13
1 10840U 23457ED  26075.70052083  .00000000  00000+0  00000-0 0  9998
2 10840  55.0000 331.2000 0000000   0.0000 156.8000 15.90815360    13
CMOB_L_00003024-14
1 10841U 24691XW  26075.70052083  .00000000  00000+0  00000-0 0  9990
2 10841  55.0000 331.2000 0000000   0.0000 166.8000 15.90815360    15
CMOB_L_00003024-15
1 10842U 26708BU  26075.70052083  .00000000  00000+0  00000-0 0  9992
2 10842  55.0000 331.2000 0000000   0.0000 176.8000 15.90815360    17
CMOB_L_00003024-16
1 10843U 22313DW  26075.70052083  .00000000  00000+0  00000-0 0  9991
2 10843  55.0000 331.2000 0000000   0.0000 186.8000 15.90815360    19
CMOB_L_00003024-17
1 10844U 24875LL  26075.70052083  .00000000  00000+0  00000-0 0  9997
2 10844  55.0000 331.2000 0000000   0.0000 196.8000 15.90815360    11
CMOB_L_00003024-18
1 10845U 26538RH  26075.70052083  .00000000  00000+0  00000-0 0  9996
2 10845  55.0000 331.2000 0000000   0.0000 206.8000 15.90815360    14
CMOB_L_00003024-19
1 10846U 22510CV  26075.70052083  .00000000  00000+0  00000-0 0  9993
2 10846  55.0000 331.2000 0000000   0.0000 216.8000 15.90815360    16
CMOB_L_00003024-20
1 10847U 26301RE  26075.70052083  .00000000  00000+0  00000-0 0  9996
2 10847  55.0000 331.2000 0000000   0.0000 226.8000 15.90815360    18
CMOB_L_00003024-21
1 10848U 26177LQ  26075.70052083  .00000000  00000+0  00000-0 0  9998
2 10848  55.0000 331.2000 0000000   0.0000 236.8000 15.90815360    10
CMOB_L_00003024-22
1 10849U 26348LL  26075.70052083  .00000000  00000+0  00000-0 0  9999
2 10849  55.0000 331.2000 0000000   0.0000 246.8000 15.90815360    12
CMOB_L_00003024-23
1 10850U 26299KS  26075.70052083  .00000000  00000+0  00000-0 0  9996
2 10850  55.0000 331.2000 0000000   0.0000 256.8000 15.90815360    15
CMOB_L_00003024-24
1 10851U 23693IB  26075.70052083  .00000000  00000+0  00000-0 0  9992
2 10851  55.0000 331.2000 0000000   0.0000 266.8000 15.90815360    17
CMOB_L_00003024-25
1 10852U 26775WR  26075.70052083  .00000000  00000+0  00000-0 0  9997
2 10852  55.0000 331.2000 0000000   0.0000 276.8000 15.90815360    19
CMOB_L_00003024-26
1 10853U 26584LI  26075.70052083  .00000000  00000+0  00000-0 0  9996
2 10853  55.0000 331.2000 0000000   0.0000 286.8000 15.90815360    11
CMOB_L_00003024-27
1 10854U 25105CL  26075.70052083  .00000000  00000+0  00000-0 0  9995
2 10854  55.0000 331.2000 0000000   0.0000 296.8000 15.90815360    13
CMOB_L_00003024-28
1 10855U 23901NN  26075.70052083  .00000000  00000+0  00000-0 0  9998
2 10855  55.0000 331.2000 0000000   0.0000 306.8000 15.90815360    16
CMOB_L_00003024-29
1 10856U 24746ZR  26075.70052083  .00000000  00000+0  00000-0 0  9997
2 10856  55.0000 331.2000 0000000   0.0000 316.8000 15.90815360    18
CMOB_L_00003024-30
1 10857U 24150MC  26075.70052083  .00000000  00000+0  00000-0 0  9997
2 10857  55.0000 331.2000 0000000   0.0000 326.8000 15.90815360    10
CMOB_L_00003024-31
1 10858U 22255SU  26075.70052083  .00000000  00000+0  00000-0 0  9992
2 10858  55.0000 331.2000 0000000   0.0000 336.8000 15.90815360    12
CMOB_L_00003024-32
1 10859U 26730PT  26075.70052083  .00000000  00000+0  00000-0 0  9995
2 10859  55.0000 331.2000 0000000   0.0000 346.8000 15.90815360    14
CMOB_L_00003024-33
1 10860U 25166S   26075.70052083  .00000000  00000+0  00000-0 0  9999
2 10860  55.0000 331.2000 0000000   0.0000 356.8000 15.90815360    17
CMOB_L_00003024-34
1 10861U 23264IL  26075.70052083  .00000000  00000+0  00000-0 0  9997
2 10861  55.0000 331.2000 0000000   0.0000   6.8000 15.90815360    10
CMOB_L_00003024-35
1 10862U 23523PE  26075.70052083  .00000000  00000+0  00000-0 0  9996
2 10862  55.0000 331.2000 0000000   0.0000  16.8000 15.90815360    12
CMOB_L_00003024-36
1 10863U 22513UX  26075.70052083  .00000000  00000+0  00000-0 0  9995
2 10863  55.0000 331.2000 0000000   0.0000  26.8000 15.90815360    14
CMOB_L_00003025-01
1 10864U 24017MT  26075.70052083  .00000000  00000+0  00000-0 0  9997
2 10864  55.0000 345.6000 0000000   0.0000  38.4000 15.90815360    13
CMOB_L_00003025-02
1 10865U 23162OA  26075.70052083  .00000000  00000+0  00000-0 0  9998
2 10865  55.0000 345.6000 0000000   0.0000  48.4000 15.90815360    15
CMOB_L_00003025-03
1 10866U 24296HR  26075.70052083  .00000000  00000+0  00000-0 0  9998
2 10866  55.0000 345.6000 0000000   0.0000  58.4000 15.90815360    17
CMOB_L_00003025-04
1 10867U 24627OC  26075.70052083  .00000000  00000+0  00000-0 0  9997
2 10867  55.0000 345.6000 0000000   0.0000  68.4000 15.90815360    19
